NOAA 15                 
1 25338U 98030A   21025.15985097  .00000038  00000-0  34666-4 0  9995
2 25338  98.6980  54.8526 0010000 343.5036  16.5817 14.26010009180828
DMSP 5D-3 F15 (USA 147) 
1 25991U 99067A   21025.16201723 -.00000102  00000-0 -28078-4 0  9993
2 25991  98.9995   4.5415 0009723 185.7774 184.1305 14.16463875 91834
METEOSAT-8 (MSG-1)      
1 27509U 02040B   21025.15414550  .00000145  00000-0  00000+0 0  9993
2 27509   7.1156  53.1475 0000644 302.2749 226.2031  1.00267408 67503
DMSP 5D-3 F16 (USA 172) 
1 28054U 03048A   21025.18525476 -.00000068  00000-0 -12261-4 0  9994
2 28054  98.9387   9.7662 0006850 321.4426  49.1733 14.13647512891229
NOAA 18                 
1 28654U 05018A   21025.15496797  .00000083  00000-0  69620-4 0  9995
2 28654  99.0151  89.3248 0013627 329.4941  30.5437 14.12575594808301
METEOSAT-9 (MSG-2)      
1 28912U 05049B   21024.85931625  .00000026  00000-0  00000-0 0  9996
2 28912   4.8985  69.1711 0001385 255.6539 112.2162  1.00274978 55299
FORMOSAT-3 FM6          
1 29047U 06011A   21024.72234533  .00000170  00000-0  82681-4 0  9995
2 29047  71.9789  18.3555 0048816  38.0486 322.4081 14.28779838772911
FORMOSAT-3 FM1          
1 29048U 06011B   21024.95598219  .00000082  00000-0  48738-4 0  9992
2 29048  71.9668 288.5290 0043715 355.5585   4.5157 14.28749537775430
FORMOSAT-3 FM5          
1 29049U 06011C   21024.94504732  .00000062  00000-0  40663-4 0  9996
2 29049  72.0207 101.4624 0034258  19.6193 340.6253 14.28826210771229
FORMOSAT-3 FM3          
1 29050U 06011D   21025.02046012  .00000163  00000-0  44593-4 0  9998
2 29050  72.0140 224.7409 0051662 281.5481  77.9874 14.59008166788745
FORMOSAT-3 FM4          
1 29051U 06011E   21025.14957691  .00000030  00000-0  27610-4 0  9990
2 29051  72.0061   2.6679 0070631 261.7075  97.6048 14.28862522773843
FORMOSAT-3 FM2          
1 29052U 06011F   21024.85323541  .00000092  00000-0  52295-4 0  9994
2 29052  72.0343  78.1425 0040995 338.9742  20.9707 14.28968033771328
EWS-G1 (GOES 13)        
1 29155U 06018A   21024.87091865  .00000049  00000-0  00000-0 0  9993
2 29155   0.3825 103.7203 0006251 135.6528 260.0635  1.00274650 23622
METOP-A                 
1 29499U 06044A   21025.16106785 -.00000013  00000-0  13223-4 0  9991
2 29499  98.4937  70.0013 0001092  67.6363   0.4575 14.21496182740380
DMSP 5D-3 F17 (USA 191) 
1 29522U 06050A   21025.10526755  .00000025  00000-0  36139-4 0  9995
2 29522  98.7917  44.0484 0008851 266.4259  93.5902 14.14033984734057
FENGYUN 3A              
1 32958U 08026A   21025.17025760  .00000003  00000-0  21433-4 0  9991
2 32958  98.4323   5.6978 0009711  58.2230 301.9892 14.18645617656261
FENGYUN 2E              
1 33463U 08066A   21024.66067975 -.00000198  00000-0  00000-0 0  9993
2 33463   4.8040  67.8010 0003872 316.8294  64.4778  1.00271723 44346
NOAA 19                 
1 33591U 09005A   21025.10495208  .00000038  00000-0  45847-4 0  9997
2 33591  99.1926  42.1887 0014113 170.9176 189.2252 14.12449707616685
GOES 14                 
1 35491U 09033A   21024.62251066 -.00000080  00000-0  00000-0 0  9993
2 35491   0.0824 231.6456 0012159 356.7081  15.6541  1.00271810 42371
METEOR-M 1              
1 35865U 09049A   21024.98323140 -.00000010  00000-0  14164-4 0  9990
2 35865  98.4627   8.8624 0001187 266.3064  93.7979 14.22262484589402
DMSP 5D-3 F18 (USA 210) 
1 35951U 09057A   21025.12690863  .00000074  00000-0  61850-4 0  9994
2 35951  98.6661  13.7859 0012141  95.2065 265.0493 14.13327950581312
GOES 15                 
1 36411U 10008A   21024.67846545  .00000064  00000-0  00000-0 0  9998
2 36411   0.4107  98.7588 0002228 310.4099 191.4631  1.00280665 39920
COMS 1                  
1 36744U 10032A   21024.88426576 -.00000332  00000-0  00000-0 0  9994
2 36744   0.0341 123.3009 0001106 172.4910 275.1091  1.00272584 31349
FENGYUN 3B              
1 37214U 10059A   21025.18361420  .00000027  00000-0  37085-4 0  9993
2 37214  99.0698  16.5960 0017081   2.7264 126.0676 14.15973333529053
SUOMI NPP               
1 37849U 11061A   21025.06650263  .00000005  00000-0  23189-4 0  9990
2 37849  98.7248 325.7535 0001156  59.0137 312.1635 14.19548713479069
FENGYUN 2F              
1 38049U 12002A   21024.88103803 -.00000347  00000-0  00000-0 0  9994
2 38049   2.5760  82.8152 0004142  27.5645  83.2112  1.00280172 33141
METEOSAT-10 (MSG-3)     
1 38552U 12035B   21024.86053755  .00000075  00000-0  00000-0 0  9994
2 38552   1.2336 357.0143 0000727   1.3815  85.0243  1.00268984 31113
METOP-B                 
1 38771U 12049A   21025.21313340  .00000002  00000-0  21032-4 0  9993
2 38771  98.7009  87.3200 0002493  86.8623 341.0935 14.21495678433521
FENGYUN 3C              
1 39260U 13052A   21025.17345128 -.00000013  00000-0  14340-4 0  9993
2 39260  98.5210  72.3009 0010061 301.7017  58.3180 14.15856934379993
METEOR-M 2              
1 40069U 14037A   21025.11290191 -.00000025  00000-0  75865-5 0  9992
2 40069  98.4781  59.9720 0005778  10.9194 349.2118 14.20680241339686
HIMAWARI-8              
1 40267U 14060A   21024.88670838 -.00000263  00000-0  00000-0 0  9999
2 40267   0.0535 183.0679 0001358 120.1387 281.0575  1.00271043 23019
FENGYUN 2G              
1 40367U 14090A   21025.15470410 -.00000290  00000-0  00000+0 0  9997
2 40367   0.6806  93.1778 0002134 303.6343 242.8692  1.00286520 22291
METEOSAT-11 (MSG-4)     
1 40732U 15034A   21024.85879285  .00000012  00000-0  00000-0 0  9993
2 40732   0.3169 258.9728 0001160 356.4304 178.5424  1.00262615 20298
ELEKTRO-L 2             
1 41105U 15074A   21024.85582681 -.00000104  00000-0  00000-0 0  9996
2 41105   1.7316  94.3634 0001948 154.9291 168.7389  1.00272455 18763
HIMAWARI-9              
1 41836U 16064A   21024.88679562 -.00000262  00000-0  00000-0 0  9990
2 41836   0.0489 256.5336 0001105  82.1863 245.6785  1.00273119 15445
GOES 16                 
1 41866U 16071A   21024.84370101 -.00000235  00000-0  00000-0 0  9994
2 41866   0.0375 213.5510 0001552 110.4295  28.9044  1.00271854 15364
FENGYUN 4A              
1 41882U 16077A   21024.75716182 -.00000318  00000-0  00000-0 0  9993
2 41882   0.0558  76.6702 0004658 350.1074  74.7101  1.00275343 15230
CYGFM05                 
1 41884U 16078A   21024.61537224  .00000543  00000-0  30172-4 0  9995
2 41884  34.9564 125.9764 0016030 223.3876 136.5574 15.14850022227632
CYGFM04                 
1 41885U 16078B   21024.64206718  .00000562  00000-0  30738-4 0  9999
2 41885  34.9496 117.8011 0014511 235.4700 124.4641 15.15366218227668
CYGFM02                 
1 41886U 16078C   21024.63529736  .00000566  00000-0  30975-4 0  9994
2 41886  34.9589 119.7335 0015223 230.9266 129.0092 15.15365136227737
CYGFM01                 
1 41887U 16078D   21024.61168372  .00000537  00000-0  30006-4 0  9991
2 41887  34.9530 127.4813 0016483 223.5632 136.3777 15.14654188227586
CYGFM08                 
1 41888U 16078E   21024.60838019  .00000539  00000-0  29763-4 0  9993
2 41888  34.9502 122.3526 0015733 231.5860 128.3439 15.15069054227680
CYGFM06                 
1 41889U 16078F   21024.61490621  .00000536  00000-0  29413-4 0  9997
2 41889  34.9582 118.5515 0014170 230.7157 129.2298 15.15355445227683
CYGFM07                 
1 41890U 16078G   21024.92291648  .00000492  00000-0  27134-4 0  9990
2 41890  34.9522 115.6282 0013987 236.9171 123.0198 15.15355094227723
CYGFM03                 
1 41891U 16078H   21024.58992747  .00000539  00000-0  29570-4 0  9999
2 41891  34.9552 118.0139 0013445 232.7462 127.2024 15.15341511227724
FENGYUN 3D              
1 43010U 17072A   21025.15113408  .00000014  00000-0  27253-4 0  9996
2 43010  98.7752 328.1945 0001894 128.0802 232.0547 14.19759530165653
NOAA 20                 
1 43013U 17073A   21025.09980971 -.00000018  00000-0  12376-4 0  9995
2 43013  98.7413 325.8285 0001368  83.2082 276.9250 14.19548602165103
GOES 17                 
1 43226U 18022A   21024.68566109  .00000111  00000-0  00000-0 0  9993
2 43226   0.0589 240.0511 0000721  73.7840 279.9736  1.00271732 10662
FENGYUN 2H              
1 43491U 18050A   21024.87449532 -.00000117  00000-0  00000-0 0  9996
2 43491   0.1454 247.9877 0002538 247.9946  22.6230  1.00270562  9760
METOP-C                 
1 43689U 18087A   21025.16688876 -.00000002  00000-0  19075-4 0  9993
2 43689  98.7080  87.6697 0003448  79.6825 280.4741 14.21489083115095
GEO-KOMPSAT-2A          
1 43823U 18100A   21024.88426576 -.00000331  00000-0  00000+0 0  9992
2 43823   0.0506 244.3294 0002366  39.8648 286.7871  1.00272324  7913
IOD-1 GEMS              
1 44385U 98067QK  21024.95683874  .00074429  00000-0  44352-3 0  9990
2 44385  51.6364 288.7832 0004900 125.5914 234.5543 15.77243538 89209
METEOR-M2 2             
1 44387U 19038A   21025.17125846 -.00000021  00000-0  97638-5 0  9993
2 44387  98.6512 347.1573 0000973   7.4035 352.7161 14.23684943 81083
